start=new Date('2023-05-03T00:00:00.000Z').valueOf();
sats=[{"EPOCH":"2023-05-02T08:23:09.902688","APOAPSIS":"548.165","PERIAPSIS":"546.285","OBJECT_TYPE":"PAYLOAD","ECCENTRICITY":"0.00013570","CENTER_NAME":"EARTH","SEMIMAJOR_AXIS":"6925.360","TIME_SYSTEM":"UTC","FILE":"3899068","ELEMENT_SET_NO":"999","REV_AT_EPOCH":"11092","INCLINATION":"53.0531","TLE_LINE1":"1 48318U 21036AU  23122.34942017 -.00000960  00000-0 -45540-4 0  9995","OBJECT_ID":"2021-036AU","MEAN_MOTION":"15.06396225","OBJECT_NAME":"STARLINK-2509","MEAN_MOTION_DDOT":"0.0000000000000","MEAN_MOTION_DOT":"-0.00000960","RCS_SIZE":"LARGE","ARG_OF_PERICENTER":"91.0624","GP_ID":"231091220","TLE_LINE2":"2 48318  53.0531 100.8610 0001357  91.0624 269.0521 15.06396225110924","SITE":"AFETR","EPHEMERIS_TYPE":"0","BSTAR":"-0.00004554000000","MEAN_ELEMENT_THEORY":"SGP4","REF_FRAME":"TEME","CLASSIFICATION_TYPE":"U","NORAD_CAT_ID":"48318","COUNTRY_CODE":"US","DECAY_DATE":null,"LAUNCH_DATE":"2021-04-29","PERIOD":"95.592","RA_OF_ASC_NODE":"100.8610","MEAN_ANOMALY":"269.0521"},{"ARG_OF_PERICENTER":"96.8025","GP_ID":"231091470","TLE_LINE2":"2 48319  53.0535 100.5738 0001217  96.8025 263.3102 15.06395214110930","SITE":"AFETR","EPHEMERIS_TYPE":"0","NORAD_CAT_ID":"48319","CLASSIFICATION_TYPE":"U","REF_FRAME":"TEME","MEAN_ELEMENT_THEORY":"SGP4","BSTAR":"0.00009522100000","MEAN_ANOMALY":"263.3102","LAUNCH_DATE":"2021-04-29","DECAY_DATE":null,"RA_OF_ASC_NODE":"100.5738","PERIOD":"95.592","COUNTRY_CODE":"US","MEAN_MOTION":"15.06395214","OBJECT_ID":"2021-036AV","MEAN_MOTION_DDOT":"0.0000000000000","OBJECT_NAME":"STARLINK-2512","MEAN_MOTION_DOT":"0.00001137","RCS_SIZE":"LARGE","TIME_SYSTEM":"UTC","SEMIMAJOR_AXIS":"6925.363","CENTER_NAME":"EARTH","INCLINATION":"53.0535","REV_AT_EPOCH":"11093","ELEMENT_SET_NO":"999","FILE":"3899068","TLE_LINE1":"1 48319U 21036AV  23122.41114456  .00001137  00000-0  95221-4 0  9998","APOAPSIS":"548.071","EPOCH":"2023-05-02T09:52:02.889984","PERIAPSIS":"546.385","ECCENTRICITY":"0.00012170","OBJECT_TYPE":"PAYLOAD"},{"REF_FRAME":"TEME","MEAN_ELEMENT_THEORY":"SGP4","BSTAR":"0.00013539000000","NORAD_CAT_ID":"48320","CLASSIFICATION_TYPE":"U","COUNTRY_CODE":"US","MEAN_ANOMALY":"273.7282","LAUNCH_DATE":"2021-04-29","DECAY_DATE":null,"RA_OF_ASC_NODE":"99.4051","PERIOD":"95.592","ARG_OF_PERICENTER":"86.3868","GP_ID":"231121669","TLE_LINE2":"2 48320  53.0528  99.4051 0001407  86.3868 273.7282 15.06406212110977","EPHEMERIS_TYPE":"0","SITE":"AFETR","MEAN_MOTION_DOT":"0.00001736","RCS_SIZE":"LARGE","MEAN_MOTION":"15.06406212","OBJECT_ID":"2021-036AW","OBJECT_NAME":"STARLINK-2029","MEAN_MOTION_DDOT":"0.0000000000000","FILE":"3899277","INCLINATION":"53.0528","REV_AT_EPOCH":"11097","ELEMENT_SET_NO":"999","TLE_LINE1":"1 48320U 21036AW  23122.67378751  .00001736  00000-0  13539-3 0  9994","SEMIMAJOR_AXIS":"6925.330","CENTER_NAME":"EARTH","TIME_SYSTEM":"UTC","OBJECT_TYPE":"PAYLOAD","ECCENTRICITY":"0.00014070","EPOCH":"2023-05-02T16:10:15.240864","APOAPSIS":"548.169","PERIAPSIS":"546.220"},{"TLE_LINE1":"1 48321U 21036AX  23122.67010314  .00003665  00000-0  26477-3 0  9991","ELEMENT_SET_NO":"999","INCLINATION":"53.0531","REV_AT_EPOCH":"11097","FILE":"3899277","TIME_SYSTEM":"UTC","CENTER_NAME":"EARTH","SEMIMAJOR_AXIS":"6925.342","ECCENTRICITY":"0.00013430","OBJECT_TYPE":"PAYLOAD","PERIAPSIS":"546.277","APOAPSIS":"548.137","EPOCH":"2023-05-02T16:04:56.911296","DECAY_DATE":null,"PERIOD":"95.592","LAUNCH_DATE":"2021-04-29","RA_OF_ASC_NODE":"99.4214","MEAN_ANOMALY":"268.6835","COUNTRY_CODE":"US","CLASSIFICATION_TYPE":"U","NORAD_CAT_ID":"48321","MEAN_ELEMENT_THEORY":"SGP4","BSTAR":"0.00026477000000","REF_FRAME":"TEME","EPHEMERIS_TYPE":"0","TLE_LINE2":"2 48321  53.0531  99.4214 0001343  91.4308 268.6835 15.06402045110975","SITE":"AFETR","GP_ID":"231121919","ARG_OF_PERICENTER":"91.4308","MEAN_MOTION_DOT":"0.00003665","RCS_SIZE":"LARGE","MEAN_MOTION_DDOT":"0.0000000000000","OBJECT_NAME":"STARLINK-2457","OBJECT_ID":"2021-036AX","MEAN_MOTION":"15.06402045"},{"TLE_LINE1":"1 48322U 21036AY  23122.66643647  .00001907  00000-0  14696-3 0  9999","FILE":"3899277","REV_AT_EPOCH":"11097","INCLINATION":"53.0530","ELEMENT_SET_NO":"999","SEMIMAJOR_AXIS":"6925.395","CENTER_NAME":"EARTH","TIME_SYSTEM":"UTC","OBJECT_TYPE":"PAYLOAD","ECCENTRICITY":"0.00014750","PERIAPSIS":"546.238","EPOCH":"2023-05-02T15:59:40.111008","APOAPSIS":"548.281","COUNTRY_CODE":"US","MEAN_ANOMALY":"263.1381","DECAY_DATE":null,"LAUNCH_DATE":"2021-04-29","RA_OF_ASC_NODE":"99.4378","PERIOD":"95.593","REF_FRAME":"TEME","BSTAR":"0.00014696000000","MEAN_ELEMENT_THEORY":"SGP4","NORAD_CAT_ID":"48322","CLASSIFICATION_TYPE":"U","EPHEMERIS_TYPE":"0","TLE_LINE2":"2 48322  53.0530  99.4378 0001475  96.9775 263.1381 15.06384916110972","SITE":"AFETR","ARG_OF_PERICENTER":"96.9775","GP_ID":"231123171","RCS_SIZE":"LARGE","MEAN_MOTION_DOT":"0.00001907","OBJECT_NAME":"STARLINK-2477","MEAN_MOTION_DDOT":"0.0000000000000","MEAN_MOTION":"15.06384916","OBJECT_ID":"2021-036AY"},{"ARG_OF_PERICENTER":"93.3800","GP_ID":"231122914","TLE_LINE2":"2 48323  53.0524  99.4573 0001323  93.3800 266.7340 15.06402112110978","EPHEMERIS_TYPE":"0","SITE":"AFETR","BSTAR":"0.00086252000000","MEAN_ELEMENT_THEORY":"SGP4","REF_FRAME":"TEME","CLASSIFICATION_TYPE":"U","NORAD_CAT_ID":"48323","COUNTRY_CODE":"US","DECAY_DATE":null,"LAUNCH_DATE":"2021-04-29","PERIOD":"95.592","RA_OF_ASC_NODE":"99.4573","MEAN_ANOMALY":"266.7340","OBJECT_ID":"2021-036AZ","MEAN_MOTION":"15.06402112","OBJECT_NAME":"STARLINK-2515","MEAN_MOTION_DDOT":"0.0000000000000","RCS_SIZE":"LARGE","MEAN_MOTION_DOT":"0.00012590","CENTER_NAME":"EARTH","SEMIMAJOR_AXIS":"6925.342","TIME_SYSTEM":"UTC","FILE":"3899277","ELEMENT_SET_NO":"999","INCLINATION":"53.0524","REV_AT_EPOCH":"11097","TLE_LINE1":"1 48323U 21036AZ  23122.66273495  .00012590  00000-0  86252-3 0  9997","EPOCH":"2023-05-02T15:54:20.299680","APOAPSIS":"548.123","PERIAPSIS":"546.291","OBJECT_TYPE":"PAYLOAD","ECCENTRICITY":"0.00013230"},{"OBJECT_NAME":"STARLINK-2527","MEAN_MOTION_DDOT":"0.0000000000000","MEAN_MOTION":"15.06395646","OBJECT_ID":"2021-036BA","MEAN_MOTION_DOT":"0.00001372","RCS_SIZE":"LARGE","TLE_LINE2":"2 48324  53.0529  99.4660 0001329  95.5525 264.5615 15.06395646110968","SITE":"AFETR","EPHEMERIS_TYPE":"0","GP_ID":"231122170","ARG_OF_PERICENTER":"95.5525","COUNTRY_CODE":"US","MEAN_ANOMALY":"264.5615","RA_OF_ASC_NODE":"99.4660","DECAY_DATE":null,"LAUNCH_DATE":"2021-04-29","PERIOD":"95.592","REF_FRAME":"TEME","BSTAR":"0.00011096000000","MEAN_ELEMENT_THEORY":"SGP4","NORAD_CAT_ID":"48324","CLASSIFICATION_TYPE":"U","PERIAPSIS":"546.307","EPOCH":"2023-05-02T15:47:40.217568","APOAPSIS":"548.147","OBJECT_TYPE":"PAYLOAD","ECCENTRICITY":"0.00013290","SEMIMAJOR_AXIS":"6925.362","CENTER_NAME":"EARTH","TIME_SYSTEM":"UTC","TLE_LINE1":"1 48324U 21036BA  23122.65810437  .00001372  00000-0  11096-3 0  9990","FILE":"3899277","INCLINATION":"53.0529","REV_AT_EPOCH":"11096","ELEMENT_SET_NO":"999"},{"LAUNCH_DATE":"2021-04-29","DECAY_DATE":null,"RA_OF_ASC_NODE":"99.4892","PERIOD":"95.592","MEAN_ANOMALY":"267.5294","COUNTRY_CODE":"US","CLASSIFICATION_TYPE":"U","NORAD_CAT_ID":"48325","BSTAR":"0.00076365000000","MEAN_ELEMENT_THEORY":"SGP4","REF_FRAME":"TEME","SITE":"AFETR","TLE_LINE2":"2 48325  53.0520  99.4892 0001442  92.5860 267.5294 15.06396678110975","EPHEMERIS_TYPE":"0","ARG_OF_PERICENTER":"92.5860","GP_ID":"231122420","RCS_SIZE":"LARGE","MEAN_MOTION_DOT":"0.00011110","MEAN_MOTION_DDOT":"0.0000000000000","OBJECT_NAME":"STARLINK-2495","OBJECT_ID":"2021-036BB","MEAN_MOTION":"15.06396678","TLE_LINE1":"1 48325U 21036BB  23122.65536052  .00011110  00000-0  76365-3 0  9990","ELEMENT_SET_NO":"999","REV_AT_EPOCH":"11097","INCLINATION":"53.0520","FILE":"3899277","TIME_SYSTEM":"UTC","CENTER_NAME":"EARTH","SEMIMAJOR_AXIS":"6925.359","ECCENTRICITY":"0.00014420","OBJECT_TYPE":"PAYLOAD","PERIAPSIS":"546.225","APOAPSIS":"548.222","EPOCH":"2023-05-02T15:43:43.148928"},{"NORAD_CAT_ID":"48326","CLASSIFICATION_TYPE":"U","BSTAR":"0.00028940000000","MEAN_ELEMENT_THEORY":"SGP4","REF_FRAME":"TEME","DECAY_DATE":null,"RA_OF_ASC_NODE":"99.5086","LAUNCH_DATE":"2021-04-29","PERIOD":"95.592","MEAN_ANOMALY":"269.4223","COUNTRY_CODE":"US","ARG_OF_PERICENTER":"90.6961","GP_ID":"231122671","SITE":"AFETR","TLE_LINE2":"2 48326  53.0526  99.5086 0001703  90.6961 269.4223 15.06396724110974","EPHEMERIS_TYPE":"0","MEAN_MOTION_DOT":"0.00004031","RCS_SIZE":"LARGE","OBJECT_ID":"2021-036BC","MEAN_MOTION":"15.06396724","MEAN_MOTION_DDOT":"0.0000000000000","OBJECT_NAME":"STARLINK-2498","ELEMENT_SET_NO":"999","REV_AT_EPOCH":"11097","INCLINATION":"53.0526","FILE":"3899277","TLE_LINE1":"1 48326U 21036BC  23122.65167604  .00004031  00000-0  28940-3 0  9994","TIME_SYSTEM":"UTC","CENTER_NAME":"EARTH","SEMIMAJOR_AXIS":"6925.359","ECCENTRICITY":"0.00017030","OBJECT_TYPE":"PAYLOAD","APOAPSIS":"548.403","EPOCH":"2023-05-02T15:38:24.809856","PERIAPSIS":"546.044"},{"APOAPSIS":"548.132","EPOCH":"2023-05-02T15:33:06.223680","PERIAPSIS":"546.282","ECCENTRICITY":"0.00013360","OBJECT_TYPE":"PAYLOAD","TIME_SYSTEM":"UTC","CENTER_NAME":"EARTH","SEMIMAJOR_AXIS":"6925.342","ELEMENT_SET_NO":"999","INCLINATION":"53.0523","REV_AT_EPOCH":"11097","FILE":"3899277","TLE_LINE1":"1 48327U 21036BD  23122.64798870  .00003610  00000-0  26111-3 0  9999","OBJECT_ID":"2021-036BD","MEAN_MOTION":"15.06402200","MEAN_MOTION_DDOT":"0.0000000000000","OBJECT_NAME":"STARLINK-2502","RCS_SIZE":"LARGE","MEAN_MOTION_DOT":"0.00003610","GP_ID":"231123415","ARG_OF_PERICENTER":"91.8823","TLE_LINE2":"2 48327  53.0523  99.5230 0001336  91.8823 268.2319 15.06402200110975","SITE":"AFETR","EPHEMERIS_TYPE":"0","CLASSIFICATION_TYPE":"U","NORAD_CAT_ID":"48327","MEAN_ELEMENT_THEORY":"SGP4","BSTAR":"0.00026111000000","REF_FRAME":"TEME","DECAY_DATE":null,"LAUNCH_DATE":"2021-04-29","RA_OF_ASC_NODE":"99.5230","PERIOD":"95.592","MEAN_ANOMALY":"268.2319","COUNTRY_CODE":"US"}];
